NORAD_CAT_ID,OBJECT_NAME,OBJECT_TYPE,EPOCH,MEAN_MOTION,ECCENTRICITY,INCLINATION,RA_OF_ASC_NODE,ARG_OF_PERICENTER,MEAN_ANOMALY,BSTAR,MEAN_MOTION_DOT,MEAN_MOTION_DDOT,TLE_LINE0,TLE_LINE1,TLE_LINE2,SEMIMAJOR_AXIS,PERIOD,APOGEE,PERIGEE,DECAYED
53703.0,STARLINK-4731,PAYLOAD,2023-05-11 12:27:27,15.08851636,0.0001258,53.214,201.9573,86.3621,273.7515,0.00036931,5.596e-05,0.0,0 STARLINK-4731,1 53703U 22107D   23131.51907341  .00005596  00000-0  36931-3 0  9990,2 53703  53.2140 201.9573 0001258  86.3621 273.7515 15.08851636 38884,6917.845,95.437,540.58,538.84,0.0
53703.0,STARLINK-4731,PAYLOAD,2023-05-11 21:59:46,15.08844074,0.0001338,53.2142,200.1771,78.9175,281.1967,0.00015208,2.134e-05,0.0,0 STARLINK-4731,1 53703U 22107D   23131.91651523  .00002134  00000-0  15208-3 0  9991,2 53703  53.2142 200.1771 0001338  78.9175 281.1967 15.08844074 38193,6917.868,95.437,540.659,538.807,0.0
53703.0,STARLINK-4731,PAYLOAD,2023-05-12 09:07:29,15.08835575,0.000151,53.2148,198.0968,81.0736,279.0427,-1.1075e-06,-3.06e-06,0.0,0 STARLINK-4731,1 53703U 22107D   23132.38020046 -.00000306  00000-0 -11075-5 0  9994,2 53703  53.2148 198.0968 0001510  81.0736 279.0427 15.08835575 38263,6917.894,95.438,540.804,538.714,0.0
53703.0,STARLINK-4731,PAYLOAD,2023-05-12 23:25:57,15.08845848,0.0001207,53.2153,195.4157,99.3122,260.8007,7.4863e-05,9.04e-06,0.0,0 STARLINK-4731,1 53703U 22107D   23132.97635441  .00000904  00000-0  74863-4 0  9995,2 53703  53.2153 195.4157 0001207  99.3122 260.8007 15.08845848 38350,6917.863,95.437,540.563,538.893,0.0
53703.0,STARLINK-4731,PAYLOAD,2023-05-13 10:33:38,15.08848562,0.0001288,53.2152,193.3342,100.6898,259.4239,0.00011448,1.535e-05,0.0,0 STARLINK-4731,1 53703U 22107D   23133.44003343  .00001535  00000-0  11448-3 0  9998,2 53703  53.2152 193.3342 0001288 100.6898 259.4239 15.08848562 39175,6917.854,95.437,540.61,538.828,0.0
53703.0,STARLINK-4731,PAYLOAD,2023-05-14 07:13:40,15.08836234,0.0001342,53.2154,189.4705,89.0444,271.0702,0.00010094,1.319e-05,0.0,0 STARLINK-4731,1 53703U 22107D   23134.30116139  .00001319  00000-0  10094-3 0  9998,2 53703  53.2154 189.4705 0001342  89.0444 271.0702 15.08836234 38553,6917.892,95.438,540.685,538.829,0.0
53703.0,STARLINK-4731,PAYLOAD,2023-05-14 13:35:12,15.08838309,0.0001303,53.2154,188.2803,93.0591,267.055,6.3057e-05,7.16e-06,0.0,0 STARLINK-4731,1 53703U 22107D   23134.56612004  .00000716  00000-0  63057-4 0  9996,2 53703  53.2154 188.2803 0001303  93.0591 267.0550 15.08838309 39343,6917.886,95.438,540.652,538.849,0.0
53703.0,STARLINK-4731,PAYLOAD,2023-05-15 10:15:13,15.08841929,0.0001213,53.2151,184.4133,97.5908,262.5222,8.4552e-05,1.058e-05,0.0,0 STARLINK-4731,1 53703U 22107D   23135.42723850  .00001058  00000-0  84552-4 0  9997,2 53703  53.2151 184.4133 0001213  97.5908 262.5222 15.08841929 38724,6917.874,95.437,540.579,538.9,0.0
53703.0,STARLINK-4731,PAYLOAD,2023-05-15 19:47:32,15.08836382,0.0001056,53.2148,182.6288,85.1216,274.9896,7.536e-05,9.12e-06,0.0,0 STARLINK-4731,1 53703U 22107D   23135.82468245  .00000912  00000-0  75360-4 0  9990,2 53703  53.2148 182.6288 0001056  85.1216 274.9896 15.08836382 38788,6917.891,95.438,540.487,539.026,0.0
53703.0,STARLINK-4731,PAYLOAD,2023-05-16 08:30:37,15.08834381,0.0001139,53.2152,180.2512,93.3853,266.7269,6.3756e-05,7.27e-06,0.0,0 STARLINK-4731,1 53703U 22107D   23136.35460618  .00000727  00000-0  63756-4 0  9995,2 53703  53.2152 180.2512 0001139  93.3853 266.7269 15.08834381 39610,6917.898,95.438,540.551,538.975,0.0
53703.0,STARLINK-4731,PAYLOAD,2023-05-16 19:38:19,15.08837285,0.0001134,53.2153,178.1698,93.3754,266.7368,8.0963e-05,1.001e-05,0.0,0 STARLINK-4731,1 53703U 22107D   23136.81828453  .00001001  00000-0  80963-4 0  9996,2 53703  53.2153 178.1698 0001134  93.3754 266.7368 15.08837285 39680,6917.889,95.438,540.538,538.969,0.0
53703.0,STARLINK-4731,PAYLOAD,2023-05-16 22:49:06,15.08836198,0.0001131,53.2154,177.5756,95.3547,264.7574,0.00010375,1.364e-05,0.0,0 STARLINK-4731,1 53703U 22107D   23136.95076506  .00001364  00000-0  10375-3 0  9996,2 53703  53.2154 177.5756 0001131  95.3547 264.7574 15.08836198 38956,6917.892,95.438,540.539,538.975,0.0
53703.0,STARLINK-4731,PAYLOAD,2023-05-17 19:29:06,15.08838738,0.0001125,53.2155,173.7097,94.5734,265.5387,6.8288e-05,7.99e-06,0.0,0 STARLINK-4731,1 53703U 22107D   23137.81188484  .00000799  00000-0  68288-4 0  9999,2 53703  53.2155 173.7097 0001125  94.5734 265.5387 15.08838738 39836,6917.884,95.438,540.528,538.971,0.0
53703.0,STARLINK-4731,PAYLOAD,2023-05-18 01:50:39,15.08837496,0.0001125,53.2154,172.5197,94.1204,265.9917,8.486e-05,1.063e-05,0.0,0 STARLINK-4731,1 53703U 22107D   23138.07684550  .00001063  00000-0  84860-4 0  9992,2 53703  53.2154 172.5197 0001125  94.1204 265.9917 15.08837496 39126,6917.888,95.438,540.531,538.975,0.0
53703.0,STARLINK-4731,PAYLOAD,2023-05-18 09:47:35,15.08836152,0.000112,53.2154,171.0326,91.3146,268.7974,6.2799e-05,7.12e-06,0.0,0 STARLINK-4731,1 53703U 22107D   23138.40804755  .00000712  00000-0  62799-4 0  9997,2 53703  53.2154 171.0326 0001120  91.3146 268.7974 15.08836152 39923,6917.892,95.438,540.532,538.982,0.0
53703.0,STARLINK-4731,PAYLOAD,2023-05-19 09:38:22,15.08838239,0.000112,53.2153,166.5717,89.3401,270.772,4.6145e-05,4.47e-06,0.0,0 STARLINK-4731,1 53703U 22107D   23139.40164820  .00000447  00000-0  46145-4 0  9992,2 53703  53.2153 166.5717 0001120  89.3401 270.7720 15.08838239 39320,6917.886,95.438,540.526,538.976,0.0
53703.0,STARLINK-4731,PAYLOAD,2023-05-19 11:13:45,15.08839205,0.000112,53.2154,166.2744,88.7668,271.3452,3.4025e-05,2.54e-06,0.0,0 STARLINK-4731,1 53703U 22107D   23139.46788805  .00000254  00000-0  34025-4 0  9993,2 53703  53.2154 166.2744 0001120  88.7668 271.3452 15.08839205 40084,6917.883,95.438,540.523,538.973,0.0
53703.0,STARLINK-4731,PAYLOAD,2023-05-20 19:01:27,15.08846177,0.0001078,53.2155,160.3273,87.1724,272.9391,0.00011695,1.574e-05,0.0,0 STARLINK-4731,1 53703U 22107D   23140.79268054  .00001574  00000-0  11695-3 0  9993,2 53703  53.2155 160.3273 0001078  87.1724 272.9391 15.08846177 39538,6917.862,95.437,540.472,538.981,0.0
53703.0,STARLINK-4731,PAYLOAD,2023-05-21 07:44:32,15.08847707,0.0001083,53.2154,157.9481,87.4797,272.632,0.00013013,1.784e-05,0.0,0 STARLINK-4731,1 53703U 22107D   23141.32259821  .00001784  00000-0  13013-3 0  9994,2 53703  53.2154 157.9481 0001083  87.4797 272.6320 15.08847707 40361,6917.857,95.437,540.471,538.973,0.0
53703.0,STARLINK-4731,PAYLOAD,2023-05-21 23:38:24,15.08838648,0.0001096,53.2149,154.9746,83.566,276.5457,-1.0812e-06,-3.05e-06,0.0,0 STARLINK-4731,1 53703U 22107D   23141.98500655 -.00000305  00000-0 -10812-5 0  9996,2 53703  53.2149 154.9746 0001096  83.5660 276.5457 15.08838648 39711,6917.885,95.438,540.508,538.991,0.0
53703.0,STARLINK-4731,PAYLOAD,2023-05-22 07:35:20,15.088365,0.0001093,53.215,153.4869,89.621,270.4907,-2.7194e-05,-7.21e-06,0.0,0 STARLINK-4731,1 53703U 22107D   23142.31620868 -.00000721  00000-0 -27194-4 0  9995,2 53703  53.2150 153.4869 0001093  89.6210 270.4907 15.08836500 40516,6917.891,95.438,540.512,539.0,0.0
53703.0,STARLINK-4731,PAYLOAD,2023-05-22 17:07:39,15.08837581,0.0001062,53.2154,151.7033,89.2069,270.9044,-1.6561e-05,-5.51e-06,0.0,0 STARLINK-4731,1 53703U 22107D   23142.71364826 -.00000551  00000-0 -16561-4 0  9995,2 53703  53.2154 151.7033 0001062  89.2069 270.9044 15.08837581 40571,6917.888,95.438,540.487,539.018,0.0
53703.0,STARLINK-4731,PAYLOAD,2023-05-23 01:04:34,15.08838995,0.0001051,53.2152,150.2163,88.9388,271.1725,-1.6194e-05,-5.45e-06,0.0,0 STARLINK-4731,1 53703U 22107D   23143.04484734 -.00000545  00000-0 -16194-4 0  9998,2 53703  53.2152 150.2163 0001051  88.9388 271.1725 15.08838995 39875,6917.883,95.438,540.476,539.021,0.0
53703.0,STARLINK-4731,PAYLOAD,2023-05-23 16:58:26,15.08837005,0.0001062,53.2152,147.2428,88.1906,271.9208,2.9391e-05,1.8e-06,0.0,0 STARLINK-4731,1 53703U 22107D   23143.70724782  .00000180  00000-0  29391-4 0  9997,2 53703  53.2152 147.2428 0001062  88.1906 271.9208 15.08837005 40726,6917.89,95.438,540.489,539.02,0.0
53703.0,STARLINK-4731,PAYLOAD,2023-05-24 07:16:54,15.08835879,0.0001056,53.2155,144.5665,87.8022,272.3091,0.00011935,1.612e-05,0.0,0 STARLINK-4731,1 53703U 22107D   23144.30340828  .00001612  00000-0  11935-3 0  9994,2 53703  53.2155 144.5665 0001056  87.8022 272.3091 15.08835879 40069,6917.893,95.438,540.489,539.027,0.0
53703.0,STARLINK-4731,PAYLOAD,2023-05-26 03:47:42,15.08840335,0.0001109,53.2155,136.2398,91.815,268.2969,4.4703e-05,4.24e-06,0.0,0 STARLINK-4731,1 53703U 22107D   23146.15813134  .00000424  00000-0  44703-4 0  9994,2 53703  53.2155 136.2398 0001109  91.8150 268.2969 15.08840335 40348,6917.879,95.438,540.512,538.977,0.0
53703.0,STARLINK-4731,PAYLOAD,2023-05-26 06:58:28,15.08841311,0.0001107,53.2153,135.6445,95.4095,264.7023,5.5221e-05,5.91e-06,0.0,0 STARLINK-4731,1 53703U 22107D   23146.29061012  .00000591  00000-0  55221-4 0  9991,2 53703  53.2153 135.6445 0001107  95.4095 264.7023 15.08841311 41111,6917.876,95.437,540.507,538.976,0.0
53703.0,STARLINK-4731,PAYLOAD,2023-05-27 05:13:53,15.08834117,0.000113,53.2154,131.482,87.0907,273.0214,1.8526e-05,7e-08,0.0,0 STARLINK-4731,1 53703U 22107D   23147.21797790  .00000007  00000-0  18526-4 0  9992,2 53703  53.2154 131.4820 0001130  87.0907 273.0214 15.08834117 40501,6917.898,95.438,540.545,538.982,0.0
53703.0,STARLINK-4731,PAYLOAD,2023-05-27 16:21:35,15.08838073,0.0001177,53.2154,129.4007,86.0392,274.0734,3.0377e-05,1.96e-06,0.0,0 STARLINK-4731,1 53703U 22107D   23147.68165615  .00000196  00000-0  30377-4 0  9995,2 53703  53.2154 129.4007 0001177  86.0392 274.0734 15.08838073 41327,6917.886,95.438,540.566,538.937,0.0
53703.0,STARLINK-4731,PAYLOAD,2023-05-27 22:43:07,15.08841112,0.0001123,53.2152,128.2107,84.7053,275.4067,4.8129e-05,4.78e-06,0.0,0 STARLINK-4731,1 53703U 22107D   23147.94661350  .00000478  00000-0  48129-4 0  9998,2 53703  53.2152 128.2107 0001123  84.7053 275.4067 15.08841112 40616,6917.877,95.437,540.519,538.965,0.0
